{"type": "FeatureCollection", "features": [{"type": "Feature", "properties": {"norad_id": 24876, "name": "GPS BIIR-2  (PRN 13)", "group": "gps-ops", "lat": 11.821688253340158, "lon": -81.99202157504561, "alt_km": 20260.89118794254, "timestamp": "2025-12-04T23:34:05.981221+00:00", "meta": {"OBJECT_NAME": "GPS BIIR-2  (PRN 13)", "OBJECT_ID": "1997-035A", "EPOCH": "2025-12-04T06:09:46.662048", "MEAN_MOTION": 2.00563453, "ECCENTRICITY": 0.0096693, "INCLINATION": 55.8911, "RA_OF_ASC_NODE": 106.2007, "ARG_OF_PERICENTER": 57.0188, "MEAN_ANOMALY": 303.8705, "EPHEMERIS_TYPE": 0, "CLASSIFICATION_TYPE": "U", "NORAD_CAT_ID": 24876, "ELEMENT_SET_NO": 999, "REV_AT_EPOCH": 20804, "BSTAR": 0, "MEAN_MOTION_DOT": 8e-08, "MEAN_MOTION_DDOT": 0}, "tle": {"line1": "1 24876U 97035A   25338.25679007  .00000008  00000+0  00000+0 0  9994", "line2": "2 24876  55.8911 106.2007 0096693  57.0188 303.8705  2.00563453208044"}}, "geometry": {"type": "Point", "coordinates": [-81.99202157504561, 11.821688253340158]}}, {"type": "Feature", "properties": {"norad_id": 26360, "name": "GPS BIIR-4  (PRN 20)", "group": "gps-ops", "lat": -52.824727866122345, "lon": -85.63563810959431, "alt_km": 20087.887773026876, "timestamp": "2025-12-04T23:34:05.981249+00:00", "meta": {"OBJECT_NAME": "GPS BIIR-4  (PRN 20)", "OBJECT_ID": "2000-025A", "EPOCH": "2025-12-03T20:43:35.059008", "MEAN_MOTION": 2.0056828, "ECCENTRICITY": 0.00387989, "INCLINATION": 55.0399, "RA_OF_ASC_NODE": 27.1971, "ARG_OF_PERICENTER": 241.132, "MEAN_ANOMALY": 287.663, "EPHEMERIS_TYPE": 0, "CLASSIFICATION_TYPE": "U", "NORAD_CAT_ID": 26360, "ELEMENT_SET_NO": 999, "REV_AT_EPOCH": 18735, "BSTAR": 0, "MEAN_MOTION_DOT": -7.1e-07, "MEAN_MOTION_DDOT": 0}, "tle": {"line1": "1 26360U 00025A   25337.86360022 -.00000071  00000+0  00000+0 0  9998", "line2": "2 26360  55.0399  27.1971 0038798 241.1320 287.6630  2.00568280187352"}}, "geometry": {"type": "Point", "coordinates": [-85.63563810959431, -52.824727866122345]}}, {"type": "Feature", "properties": {"norad_id": 26407, "name": "GPS BIIR-5  (PRN 22)", "group": "gps-ops", "lat": 54.383008910990725, "lon": -35.90662327830073, "alt_km": 20478.140786406195, "timestamp": "2025-12-04T23:34:05.981266+00:00", "meta": {"OBJECT_NAME": "GPS BIIR-5  (PRN 22)", "OBJECT_ID": "2000-040A", "EPOCH": "2025-12-03T20:42:39.159072", "MEAN_MOTION": 2.00567714, "ECCENTRICITY": 0.0126499, "INCLINATION": 54.893, "RA_OF_ASC_NODE": 222.9221, "ARG_OF_PERICENTER": 301.6438, "MEAN_ANOMALY": 66.2593, "EPHEMERIS_TYPE": 0, "CLASSIFICATION_TYPE": "U", "NORAD_CAT_ID": 26407, "ELEMENT_SET_NO": 999, "REV_AT_EPOCH": 18603, "BSTAR": 0, "MEAN_MOTION_DOT": 6e-07, "MEAN_MOTION_DDOT": 0}, "tle": {"line1": "1 26407U 00040A   25337.86295323  .00000060  00000+0  00000+0 0  9995", "line2": "2 26407  54.8930 222.9221 0126499 301.6438  66.2593  2.00567714186037"}}, "geometry": {"type": "Point", "coordinates": [-35.90662327830073, 54.383008910990725]}}, {"type": "Feature", "properties": {"norad_id": 27663, "name": "GPS BIIR-8  (PRN 16)", "group": "gps-ops", "lat": -39.958316778675005, "lon": 78.71326457519277, "alt_km": 20577.31266464476, "timestamp": "2025-12-04T23:34:05.981279+00:00", "meta": {"OBJECT_NAME": "GPS BIIR-8  (PRN 16)", "OBJECT_ID": "2003-005A", "EPOCH": "2025-12-03T11:06:59.696352", "MEAN_MOTION": 2.00571298, "ECCENTRICITY": 0.0147085, "INCLINATION": 54.9258, "RA_OF_ASC_NODE": 222.7473, "ARG_OF_PERICENTER": 51.6706, "MEAN_ANOMALY": 163.3527, "EPHEMERIS_TYPE": 0, "CLASSIFICATION_TYPE": "U", "NORAD_CAT_ID": 27663, "ELEMENT_SET_NO": 999, "REV_AT_EPOCH": 16738, "BSTAR": 0, "MEAN_MOTION_DOT": 6.1e-07, "MEAN_MOTION_DDOT": 0}, "tle": {"line1": "1 27663U 03005A   25337.46319093  .00000061  00000+0  00000+0 0  9992", "line2": "2 27663  54.9258 222.7473 0147085  51.6706 163.3527  2.00571298167382"}}, "geometry": {"type": "Point", "coordinates": [78.71326457519277, -39.958316778675005]}}, {"type": "Feature", "properties": {"norad_id": 28190, "name": "GPS BIIR-11 (PRN 19)", "group": "gps-ops", "lat": 24.128179573732165, "lon": -58.21904694780596, "alt_km": 20390.005718371107, "timestamp": "2025-12-04T23:34:05.981292+00:00", "meta": {"OBJECT_NAME": "GPS BIIR-11 (PRN 19)", "OBJECT_ID": "2004-009A", "EPOCH": "2025-12-04T10:34:11.811072", "MEAN_MOTION": 2.00560931, "ECCENTRICITY": 0.0108199, "INCLINATION": 54.9938, "RA_OF_ASC_NODE": 283.5535, "ARG_OF_PERICENTER": 167.4954, "MEAN_ANOMALY": 192.2151, "EPHEMERIS_TYPE": 0, "CLASSIFICATION_TYPE": "U", "NORAD_CAT_ID": 28190, "ELEMENT_SET_NO": 999, "REV_AT_EPOCH": 15903, "BSTAR": 0, "MEAN_MOTION_DOT": -4.2e-07, "MEAN_MOTION_DDOT": 0}, "tle": {"line1": "1 28190U 04009A   25338.44041448 -.00000042  00000+0  00000+0 0  9998", "line2": "2 28190  54.9938 283.5535 0108199 167.4954 192.2151  2.00560931159030"}}, "geometry": {"type": "Point", "coordinates": [-58.21904694780596, 24.128179573732165]}}, {"type": "Feature", "properties": {"norad_id": 28474, "name": "GPS BIIR-13 (PRN 02)", "group": "gps-ops", "lat": 55.18273562479128, "lon": 65.97471028588706, "alt_km": 20535.10607156457, "timestamp": "2025-12-04T23:34:05.981304+00:00", "meta": {"OBJECT_NAME": "GPS BIIR-13 (PRN 02)", "OBJECT_ID": "2004-045A", "EPOCH": "2025-12-04T09:39:02.075040", "MEAN_MOTION": 2.00568937, "ECCENTRICITY": 0.0170587, "INCLINATION": 55.2447, "RA_OF_ASC_NODE": 332.7413, "ARG_OF_PERICENTER": 308.8874, "MEAN_ANOMALY": 83.0394, "EPHEMERIS_TYPE": 0, "CLASSIFICATION_TYPE": "U", "NORAD_CAT_ID": 28474, "ELEMENT_SET_NO": 999, "REV_AT_EPOCH": 15452, "BSTAR": 0, "MEAN_MOTION_DOT": -7.2e-07, "MEAN_MOTION_DDOT": 0}, "tle": {"line1": "1 28474U 04045A   25338.40210735 -.00000072  00000+0  00000+0 0  9999", "line2": "2 28474  55.2447 332.7413 0170587 308.8874  83.0394  2.00568937154527"}}, "geometry": {"type": "Point", "coordinates": [65.97471028588706, 55.18273562479128]}}, {"type": "Feature", "properties": {"norad_id": 28874, "name": "GPS BIIRM-1 (PRN 17)", "group": "gps-ops", "lat": 39.28463434122193, "lon": -44.14676863519886, "alt_km": 20335.594467413353, "timestamp": "2025-12-04T23:34:05.981316+00:00", "meta": {"OBJECT_NAME": "GPS BIIRM-1 (PRN 17)", "OBJECT_ID": "2005-038A", "EPOCH": "2025-12-02T16:12:27.400896", "MEAN_MOTION": 2.00548806, "ECCENTRICITY": 0.01328204, "INCLINATION": 55.0411, "RA_OF_ASC_NODE": 281.1063, "ARG_OF_PERICENTER": 293.4087, "MEAN_ANOMALY": 250.3584, "EPHEMERIS_TYPE": 0, "CLASSIFICATION_TYPE": "U", "NORAD_CAT_ID": 28874, "ELEMENT_SET_NO": 999, "REV_AT_EPOCH": 14789, "BSTAR": 0, "MEAN_MOTION_DOT": -4.3e-07, "MEAN_MOTION_DDOT": 0}, "tle": {"line1": "1 28874U 05038A   25336.67531714 -.00000043  00000+0  00000+0 0  9994", "line2": "2 28874  55.0411 281.1063 0132820 293.4087 250.3584  2.00548806147896"}}, "geometry": {"type": "Point", "coordinates": [-44.14676863519886, 39.28463434122193]}}, {"type": "Feature", "properties": {"norad_id": 29486, "name": "GPS BIIRM-2 (PRN 31)", "group": "gps-ops", "lat": -37.43891905246731, "lon": 126.16003227321943, "alt_km": 20233.989074970752, "timestamp": "2025-12-04T23:34:05.981328+00:00", "meta": {"OBJECT_NAME": "GPS BIIRM-2 (PRN 31)", "OBJECT_ID": "2006-042A", "EPOCH": "2025-12-04T13:13:00.041088", "MEAN_MOTION": 2.00554363, "ECCENTRICITY": 0.0107357, "INCLINATION": 54.6929, "RA_OF_ASC_NODE": 159.0658, "ARG_OF_PERICENTER": 51.7626, "MEAN_ANOMALY": 309.8697, "EPHEMERIS_TYPE": 0, "CLASSIFICATION_TYPE": "U", "NORAD_CAT_ID": 29486, "ELEMENT_SET_NO": 999, "REV_AT_EPOCH": 14049, "BSTAR": 0, "MEAN_MOTION_DOT": 8.8e-07, "MEAN_MOTION_DDOT": 0}, "tle": {"line1": "1 29486U 06042A   25338.55069492  .00000088  00000+0  00000+0 0  9996", "line2": "2 29486  54.6929 159.0658 0107357  51.7626 309.8697  2.00554363140498"}}, "geometry": {"type": "Point", "coordinates": [126.16003227321943, -37.43891905246731]}}, {"type": "Feature", "properties": {"norad_id": 29601, "name": "GPS BIIRM-3 (PRN 12)", "group": "gps-ops", "lat": 7.455199788947395, "lon": -133.0262671529701, "alt_km": 20131.219445796003, "timestamp": "2025-12-04T23:34:05.981339+00:00", "meta": {"OBJECT_NAME": "GPS BIIRM-3 (PRN 12)", "OBJECT_ID": "2006-052A", "EPOCH": "2025-12-03T23:20:07.183104", "MEAN_MOTION": 2.00572838, "ECCENTRICITY": 0.0087566, "INCLINATION": 54.9725, "RA_OF_ASC_NODE": 221.7462, "ARG_OF_PERICENTER": 87.3484, "MEAN_ANOMALY": 273.7439, "EPHEMERIS_TYPE": 0, "CLASSIFICATION_TYPE": "U", "NORAD_CAT_ID": 29601, "ELEMENT_SET_NO": 999, "REV_AT_EPOCH": 13949, "BSTAR": 0, "MEAN_MOTION_DOT": 6.3e-07, "MEAN_MOTION_DDOT": 0}, "tle": {"line1": "1 29601U 06052A   25337.97230536  .00000063  00000+0  00000+0 0  9993", "line2": "2 29601  54.9725 221.7462 0087566  87.3484 273.7439  2.00572838139498"}}, "geometry": {"type": "Point", "coordinates": [-133.0262671529701, 7.455199788947395]}}, {"type": "Feature", "properties": {"norad_id": 32260, "name": "GPS BIIRM-4 (PRN 15)", "group": "gps-ops", "lat": 22.172397422810047, "lon": -109.17545582411958, "alt_km": 20003.07582259541, "timestamp": "2025-12-04T23:34:05.981351+00:00", "meta": {"OBJECT_NAME": "GPS BIIRM-4 (PRN 15)", "OBJECT_ID": "2007-047A", "EPOCH": "2025-12-02T18:46:05.230272", "MEAN_MOTION": 2.00564824, "ECCENTRICITY": 0.01643753, "INCLINATION": 53.9483, "RA_OF_ASC_NODE": 88.1698, "ARG_OF_PERICENTER": 85.1293, "MEAN_ANOMALY": 276.722, "EPHEMERIS_TYPE": 0, "CLASSIFICATION_TYPE": "U", "NORAD_CAT_ID": 32260, "ELEMENT_SET_NO": 999, "REV_AT_EPOCH": 13287, "BSTAR": 0, "MEAN_MOTION_DOT": -1.7e-07, "MEAN_MOTION_DDOT": 0}, "tle": {"line1": "1 32260U 07047A   25336.78200498 -.00000017  00000+0  00000+0 0  9995", "line2": "2 32260  53.9483  88.1698 0164375  85.1293 276.7220  2.00564824132879"}}, "geometry": {"type": "Point", "coordinates": [-109.17545582411958, 22.172397422810047]}}]}